STARLINK-33940          
1 63831U 25092AD  25356.07310647  .00021487  00000+0  78751-3 0  9990
2 63831  42.9981 250.9306 0001051 276.0698  84.0034 15.27602639 36791
STARLINK-33978          
1 63832U 25092AE  25356.84232249  .00023287  00000+0  85248-3 0  9996
2 63832  42.9969 246.3855 0001806 270.1039  89.9606 15.27601987 36916
STARLINK-34018          
1 63836U 25093A   25356.81438850  .00029971  00000+0  10934-2 0  9999
2 63836  43.0021 152.1855 0001701 265.5761  94.4896 15.27605054 36213
STARLINK-34053          
1 63837U 25093B   25356.81182330  .00028488  00000+0  10407-2 0  9996
2 63837  43.0010 152.1597 0002657 261.0196  99.0355 15.27580229 36159
STARLINK-34042          
1 63838U 25093C   25356.44939205  .00035351  00000+0  12866-2 0  9995
2 63838  42.9984 150.2725 0001646 276.9898  83.0767 15.27615818 36200
STARLINK-34040          
1 63839U 25093D   25356.47204150  .00034772  00000+0  12657-2 0  9997
2 63839  42.9997 153.9088 0002130 285.7870  74.2747 15.27615843 36167
STARLINK-33990          
1 63840U 25093E   25356.80153611  .00015193  00000+0  55983-3 0  9997
2 63840  42.9997 152.0690 0001447 276.3374  83.7313 15.27618754 35991
STARLINK-34056          
1 63841U 25093F   25356.82081822  .00028988  00000+0  10583-2 0  9996
2 63841  43.0014 152.2332 0001843 265.8147  94.2494 15.27595891 35993
STARLINK-34026          
1 63842U 25093G   25356.42978523  .00026162  00000+0  95591-3 0  9991
2 63842  42.9989 154.4595 0001075 269.9269  90.1459 15.27612644 35931
STARLINK-33777          
1 63843U 25093H   25356.78484044  .00031226  00000+0  11384-2 0  9995
2 63843  42.9962 151.9498 0001154 277.9245  82.1475 15.27611405 36213
STARLINK-34041          
1 63844U 25093J   25356.82724132  .00041408  00000+0  15036-2 0  9997
2 63844  43.0020 152.2802 0001204 290.9575  69.1147 15.27628864 36219
STARLINK-34011          
1 63845U 25093K   25356.83494983  .00021860  00000+0  80079-3 0  9997
2 63845  42.9999 152.3374 0001292 261.7116  98.3589 15.27611433 35994
STARLINK-34044          
1 63846U 25093L   25355.87071929  .00021493  00000+0  78796-3 0  9997
2 63846  43.0003 157.1336 0001725 272.4619  87.6035 15.27593793 35852
STARLINK-34037          
1 63847U 25093M   25356.46947210  .00025250  00000+0  92336-3 0  9990
2 63847  42.9984 153.8888 0001125 273.0225  87.0498 15.27600509 36164
STARLINK-34010          
1 63848U 25093N   25356.80282019  .00009489  00000+0  35363-3 0  9991
2 63848  42.9966 152.0889 0001752 310.9321  49.1379 15.27605987 35993
STARLINK-34009          
1 63849U 25093P   25356.82257900  .00024567  00000+0  89827-3 0  9993
2 63849  43.0023 148.7757 0002458 268.8361  91.2209 15.27616696 36254
