[{"OBJECT_NAME":"STARLINK-33940","OBJECT_ID":"2025-092AD","EPOCH":"2025-12-22T01:45:16.399008","MEAN_MOTION":15.27602639,"ECCENTRICITY":0.00010516,"INCLINATION":42.9981,"RA_OF_ASC_NODE":250.9306,"ARG_OF_PERICENTER":276.0698,"MEAN_ANOMALY":84.0034,"EPHEMERIS_TYPE":0,"CLASSIFICATION_TYPE":"U","NORAD_CAT_ID":63831,"ELEMENT_SET_NO":999,"REV_AT_EPOCH":3679,"BSTAR":0.00078750956,"MEAN_MOTION_DOT":0.00021487,"MEAN_MOTION_DDOT":0},{"OBJECT_NAME":"STARLINK-33978","OBJECT_ID":"2025-092AE","EPOCH":"2025-12-22T20:12:56.663136","MEAN_MOTION":15.27601987,"ECCENTRICITY":0.0001806,"INCLINATION":42.9969,"RA_OF_ASC_NODE":246.3855,"ARG_OF_PERICENTER":270.1039,"MEAN_ANOMALY":89.9606,"EPHEMERIS_TYPE":0,"CLASSIFICATION_TYPE":"U","NORAD_CAT_ID":63832,"ELEMENT_SET_NO":999,"REV_AT_EPOCH":3691,"BSTAR":0.00085248,"MEAN_MOTION_DOT":0.00023287,"MEAN_MOTION_DDOT":0},{"OBJECT_NAME":"STARLINK-34018","OBJECT_ID":"2025-093A","EPOCH":"2025-12-22T19:32:43.166400","MEAN_MOTION":15.27605054,"ECCENTRICITY":0.0001701,"INCLINATION":43.0021,"RA_OF_ASC_NODE":152.1855,"ARG_OF_PERICENTER":265.5761,"MEAN_ANOMALY":94.4896,"EPHEMERIS_TYPE":0,"CLASSIFICATION_TYPE":"U","NORAD_CAT_ID":63836,"ELEMENT_SET_NO":999,"REV_AT_EPOCH":3621,"BSTAR":0.0010934,"MEAN_MOTION_DOT":0.00029971,"MEAN_MOTION_DDOT":0},{"OBJECT_NAME":"STARLINK-34053","OBJECT_ID":"2025-093B","EPOCH":"2025-12-22T19:29:01.533120","MEAN_MOTION":15.27580229,"ECCENTRICITY":0.0002657,"INCLINATION":43.001,"RA_OF_ASC_NODE":152.1597,"ARG_OF_PERICENTER":261.0196,"MEAN_ANOMALY":99.0355,"EPHEMERIS_TYPE":0,"CLASSIFICATION_TYPE":"U","NORAD_CAT_ID":63837,"ELEMENT_SET_NO":999,"REV_AT_EPOCH":3615,"BSTAR":0.0010407,"MEAN_MOTION_DOT":0.00028488,"MEAN_MOTION_DDOT":0},{"OBJECT_NAME":"STARLINK-34042","OBJECT_ID":"2025-093C","EPOCH":"2025-12-22T10:47:07.473120","MEAN_MOTION":15.27615818,"ECCENTRICITY":0.0001646,"INCLINATION":42.9984,"RA_OF_ASC_NODE":150.2725,"ARG_OF_PERICENTER":276.9898,"MEAN_ANOMALY":83.0767,"EPHEMERIS_TYPE":0,"CLASSIFICATION_TYPE":"U","NORAD_CAT_ID":63838,"ELEMENT_SET_NO":999,"REV_AT_EPOCH":3620,"BSTAR":0.0012865858,"MEAN_MOTION_DOT":0.00035351,"MEAN_MOTION_DDOT":0},{"OBJECT_NAME":"STARLINK-34040","OBJECT_ID":"2025-093D","EPOCH":"2025-12-22T11:19:44.385600","MEAN_MOTION":15.27615843,"ECCENTRICITY":0.00021307,"INCLINATION":42.9997,"RA_OF_ASC_NODE":153.9088,"ARG_OF_PERICENTER":285.787,"MEAN_ANOMALY":74.2747,"EPHEMERIS_TYPE":0,"CLASSIFICATION_TYPE":"U","NORAD_CAT_ID":63839,"ELEMENT_SET_NO":999,"REV_AT_EPOCH":3616,"BSTAR":0.0012657448,"MEAN_MOTION_DOT":0.00034772,"MEAN_MOTION_DDOT":0},{"OBJECT_NAME":"STARLINK-33990","OBJECT_ID":"2025-093E","EPOCH":"2025-12-22T19:14:12.719904","MEAN_MOTION":15.27618754,"ECCENTRICITY":0.0001447,"INCLINATION":42.9997,"RA_OF_ASC_NODE":152.069,"ARG_OF_PERICENTER":276.3374,"MEAN_ANOMALY":83.7313,"EPHEMERIS_TYPE":0,"CLASSIFICATION_TYPE":"U","NORAD_CAT_ID":63840,"ELEMENT_SET_NO":999,"REV_AT_EPOCH":3599,"BSTAR":0.00055983,"MEAN_MOTION_DOT":0.00015193,"MEAN_MOTION_DDOT":0},{"OBJECT_NAME":"STARLINK-34056","OBJECT_ID":"2025-093F","EPOCH":"2025-12-22T19:41:58.694208","MEAN_MOTION":15.27595891,"ECCENTRICITY":0.0001843,"INCLINATION":43.0014,"RA_OF_ASC_NODE":152.2332,"ARG_OF_PERICENTER":265.8147,"MEAN_ANOMALY":94.2494,"EPHEMERIS_TYPE":0,"CLASSIFICATION_TYPE":"U","NORAD_CAT_ID":63841,"ELEMENT_SET_NO":999,"REV_AT_EPOCH":3599,"BSTAR":0.0010583,"MEAN_MOTION_DOT":0.00028988,"MEAN_MOTION_DDOT":0},{"OBJECT_NAME":"STARLINK-34026","OBJECT_ID":"2025-093G","EPOCH":"2025-12-22T10:18:53.443872","MEAN_MOTION":15.27612644,"ECCENTRICITY":0.00010757,"INCLINATION":42.9989,"RA_OF_ASC_NODE":154.4595,"ARG_OF_PERICENTER":269.9269,"MEAN_ANOMALY":90.1459,"EPHEMERIS_TYPE":0,"CLASSIFICATION_TYPE":"U","NORAD_CAT_ID":63842,"ELEMENT_SET_NO":999,"REV_AT_EPOCH":3593,"BSTAR":0.00095590657,"MEAN_MOTION_DOT":0.00026162,"MEAN_MOTION_DDOT":0},{"OBJECT_NAME":"STARLINK-33777","OBJECT_ID":"2025-093H","EPOCH":"2025-12-22T18:50:10.214016","MEAN_MOTION":15.27611405,"ECCENTRICITY":0.0001154,"INCLINATION":42.9962,"RA_OF_ASC_NODE":151.9498,"ARG_OF_PERICENTER":277.9245,"MEAN_ANOMALY":82.1475,"EPHEMERIS_TYPE":0,"CLASSIFICATION_TYPE":"U","NORAD_CAT_ID":63843,"ELEMENT_SET_NO":999,"REV_AT_EPOCH":3621,"BSTAR":0.0011384,"MEAN_MOTION_DOT":0.00031226,"MEAN_MOTION_DDOT":0},{"OBJECT_NAME":"STARLINK-34041","OBJECT_ID":"2025-093J","EPOCH":"2025-12-22T19:51:13.650048","MEAN_MOTION":15.27628864,"ECCENTRICITY":0.0001204,"INCLINATION":43.002,"RA_OF_ASC_NODE":152.2802,"ARG_OF_PERICENTER":290.9575,"MEAN_ANOMALY":69.1147,"EPHEMERIS_TYPE":0,"CLASSIFICATION_TYPE":"U","NORAD_CAT_ID":63844,"ELEMENT_SET_NO":999,"REV_AT_EPOCH":3621,"BSTAR":0.0015036,"MEAN_MOTION_DOT":0.00041408,"MEAN_MOTION_DDOT":0},{"OBJECT_NAME":"STARLINK-34011","OBJECT_ID":"2025-093K","EPOCH":"2025-12-22T20:02:19.665312","MEAN_MOTION":15.27611433,"ECCENTRICITY":0.0001292,"INCLINATION":42.9999,"RA_OF_ASC_NODE":152.3374,"ARG_OF_PERICENTER":261.7116,"MEAN_ANOMALY":98.3589,"EPHEMERIS_TYPE":0,"CLASSIFICATION_TYPE":"U","NORAD_CAT_ID":63845,"ELEMENT_SET_NO":999,"REV_AT_EPOCH":3599,"BSTAR":0.00080079,"MEAN_MOTION_DOT":0.0002186,"MEAN_MOTION_DDOT":0},{"OBJECT_NAME":"STARLINK-34044","OBJECT_ID":"2025-093L","EPOCH":"2025-12-21T20:53:50.146656","MEAN_MOTION":15.27593793,"ECCENTRICITY":0.00017256,"INCLINATION":43.0003,"RA_OF_ASC_NODE":157.1336,"ARG_OF_PERICENTER":272.4619,"MEAN_ANOMALY":87.6035,"EPHEMERIS_TYPE":0,"CLASSIFICATION_TYPE":"U","NORAD_CAT_ID":63846,"ELEMENT_SET_NO":999,"REV_AT_EPOCH":3585,"BSTAR":0.00078796441,"MEAN_MOTION_DOT":0.00021493,"MEAN_MOTION_DDOT":0},{"OBJECT_NAME":"STARLINK-34037","OBJECT_ID":"2025-093M","EPOCH":"2025-12-22T11:16:02.389440","MEAN_MOTION":15.27600509,"ECCENTRICITY":0.00011255,"INCLINATION":42.9984,"RA_OF_ASC_NODE":153.8888,"ARG_OF_PERICENTER":273.0225,"MEAN_ANOMALY":87.0498,"EPHEMERIS_TYPE":0,"CLASSIFICATION_TYPE":"U","NORAD_CAT_ID":63847,"ELEMENT_SET_NO":999,"REV_AT_EPOCH":3616,"BSTAR":0.00092336221,"MEAN_MOTION_DOT":0.0002525,"MEAN_MOTION_DDOT":0},{"OBJECT_NAME":"STARLINK-34010","OBJECT_ID":"2025-093N","EPOCH":"2025-12-22T19:16:03.664416","MEAN_MOTION":15.27605987,"ECCENTRICITY":0.0001752,"INCLINATION":42.9966,"RA_OF_ASC_NODE":152.0889,"ARG_OF_PERICENTER":310.9321,"MEAN_ANOMALY":49.1379,"EPHEMERIS_TYPE":0,"CLASSIFICATION_TYPE":"U","NORAD_CAT_ID":63848,"ELEMENT_SET_NO":999,"REV_AT_EPOCH":3599,"BSTAR":0.00035363,"MEAN_MOTION_DOT":9.489e-5,"MEAN_MOTION_DDOT":0},{"OBJECT_NAME":"STARLINK-34009","OBJECT_ID":"2025-093P","EPOCH":"2025-12-22T19:44:30.825600","MEAN_MOTION":15.27616696,"ECCENTRICITY":0.0002458,"INCLINATION":43.0023,"RA_OF_ASC_NODE":148.7757,"ARG_OF_PERICENTER":268.8361,"MEAN_ANOMALY":91.2209,"EPHEMERIS_TYPE":0,"CLASSIFICATION_TYPE":"U","NORAD_CAT_ID":63849,"ELEMENT_SET_NO":999,"REV_AT_EPOCH":3625,"BSTAR":0.00089827,"MEAN_MOTION_DOT":0.00024567,"MEAN_MOTION_DDOT":0}]
